ATLAS CENTAUR R/B       
1 06155U 72065B   25348.34921944  .00001782  00000+0  24740-3 0  9992
2 06155  35.0014  85.7688 0033745  11.1431 349.0011 14.77415961828637
SL-8 R/B                
1 08459U 75112B   25348.01312110  .00000374  00000+0  13190-3 0  9993
2 08459  74.0590 176.5160 0016618 287.7416  72.1924 14.38145865619552
SL-3 R/B                
1 10114U 77057B   25348.31250596  .00013419  00000+0  30626-3 0  9993
2 10114  97.5682 151.7015 0006564 226.3120 133.7584 15.42992947655158
SEASAT 1                
1 10967U 78064A   25348.13500328  .00000580  00000+0  20072-3 0  9998
2 10967 108.0117 305.9612 0001588 250.4804 109.6170 14.46063724494147
SL-14 R/B               
1 11267U 79011B   25348.26371152  .00000792  00000+0  75972-4 0  9995
2 11267  82.5233 177.5989 0015767 348.3488  11.7364 14.91771731516041
SL-8 R/B                
1 11574U 79089B   25348.15417473  .00000384  00000+0  12434-3 0  9996
2 11574  74.0691 249.3614 0014482  83.1191 277.1613 14.42284987423777
SL-14 R/B               
1 11672U 80005B   25348.35493513  .00000757  00000+0  74244-4 0  9998
2 11672  82.5148  28.1675 0017365  88.5829 271.7379 14.90794011463777
SL-8 R/B                
1 12139U 81003B   25348.33120903  .00016216  00000+0  42926-3 0  9992
2 12139  82.9304   8.7387 0279336 114.7395 248.3182 15.07096474301800
SL-3 R/B                
1 12465U 81046B   25348.25419196  .00011755  00000+0  29547-3 0  9994
2 12465  81.2334  32.1266 0018735 318.9745  41.0086 15.39647392425270
SL-3 R/B                
1 12904U 81103B   25348.30552583  .00007051  00000+0  32324-3 0  9991
2 12904  81.1591 313.5202 0011834 207.5290 152.5316 15.20258764960256
SL-3 R/B                
1 13068U 82013B   25348.28798789  .00005314  00000+0  23594-3 0  9990
2 13068  81.1751 260.7972 0024056 105.8526 254.5360 15.21105396391360
SL-3 R/B                
1 13154U 82039B   25348.29645345  .00003702  00000+0  22708-3 0  9999
2 13154  81.1715 314.3064 0029600 247.0447 112.7654 15.09538724368754
