CCSDS_OMM_VERS = 2.0
CREATION_DATE  = 
ORIGINATOR     = 

OBJECT_NAME    = ATLAS CENTAUR R/B
OBJECT_ID      = 1972-065B
CENTER_NAME    = EARTH
REF_FRAME      = TEME
TIME_SYSTEM    = UTC
MEAN_ELEMENT_THEORY = SGP/SGP4

EPOCH          = 2025-12-14T08:22:52.559616
MEAN_MOTION    = 14.77415961
ECCENTRICITY   = .00337454
INCLINATION    = 35.0014
RA_OF_ASC_NODE = 85.7688
ARG_OF_PERICENTER = 11.1431
MEAN_ANOMALY   = 349.0011

EPHEMERIS_TYPE = 0
CLASSIFICATION_TYPE = U
NORAD_CAT_ID   = 6155
ELEMENT_SET_NO = 999
REV_AT_EPOCH   = 82863
BSTAR          = .24739701E-3
MEAN_MOTION_DOT = .1782E-4
MEAN_MOTION_DDOT = 0

CCSDS_OMM_VERS = 2.0
CREATION_DATE  = 
ORIGINATOR     = 

OBJECT_NAME    = SL-8 R/B
OBJECT_ID      = 1975-112B
CENTER_NAME    = EARTH
REF_FRAME      = TEME
TIME_SYSTEM    = UTC
MEAN_ELEMENT_THEORY = SGP/SGP4

EPOCH          = 2025-12-14T00:18:53.663040
MEAN_MOTION    = 14.38145865
ECCENTRICITY   = .00166185
INCLINATION    = 74.0590
RA_OF_ASC_NODE = 176.5160
ARG_OF_PERICENTER = 287.7416
MEAN_ANOMALY   = 72.1924

EPHEMERIS_TYPE = 0
CLASSIFICATION_TYPE = U
NORAD_CAT_ID   = 8459
ELEMENT_SET_NO = 999
REV_AT_EPOCH   = 61955
BSTAR          = .13190357E-3
MEAN_MOTION_DOT = .374E-5
MEAN_MOTION_DDOT = 0

CCSDS_OMM_VERS = 2.0
CREATION_DATE  = 
ORIGINATOR     = 

OBJECT_NAME    = SL-3 R/B
OBJECT_ID      = 1977-057B
CENTER_NAME    = EARTH
REF_FRAME      = TEME
TIME_SYSTEM    = UTC
MEAN_ELEMENT_THEORY = SGP/SGP4

EPOCH          = 2025-12-14T07:30:00.514944
MEAN_MOTION    = 15.42992947
ECCENTRICITY   = .00065649
INCLINATION    = 97.5682
RA_OF_ASC_NODE = 151.7015
ARG_OF_PERICENTER = 226.3120
MEAN_ANOMALY   = 133.7584

EPHEMERIS_TYPE = 0
CLASSIFICATION_TYPE = U
NORAD_CAT_ID   = 10114
ELEMENT_SET_NO = 999
REV_AT_EPOCH   = 65515
BSTAR          = .30625881E-3
MEAN_MOTION_DOT = .13419E-3
MEAN_MOTION_DDOT = 0

CCSDS_OMM_VERS = 2.0
CREATION_DATE  = 
ORIGINATOR     = 

OBJECT_NAME    = SEASAT 1
OBJECT_ID      = 1978-064A
CENTER_NAME    = EARTH
REF_FRAME      = TEME
TIME_SYSTEM    = UTC
MEAN_ELEMENT_THEORY = SGP/SGP4

EPOCH          = 2025-12-14T03:14:24.283392
MEAN_MOTION    = 14.46063724
ECCENTRICITY   = .00015884
INCLINATION    = 108.0117
RA_OF_ASC_NODE = 305.9612
ARG_OF_PERICENTER = 250.4804
MEAN_ANOMALY   = 109.6170

EPHEMERIS_TYPE = 0
CLASSIFICATION_TYPE = U
NORAD_CAT_ID   = 10967
ELEMENT_SET_NO = 999
REV_AT_EPOCH   = 49414
BSTAR          = .2007204E-3
MEAN_MOTION_DOT = .58E-5
MEAN_MOTION_DDOT = 0

CCSDS_OMM_VERS = 2.0
CREATION_DATE  = 
ORIGINATOR     = 

OBJECT_NAME    = SL-14 R/B
OBJECT_ID      = 1979-011B
CENTER_NAME    = EARTH
REF_FRAME      = TEME
TIME_SYSTEM    = UTC
MEAN_ELEMENT_THEORY = SGP/SGP4

EPOCH          = 2025-12-14T06:19:44.675328
MEAN_MOTION    = 14.91771731
ECCENTRICITY   = .00157671
INCLINATION    = 82.5233
RA_OF_ASC_NODE = 177.5989
ARG_OF_PERICENTER = 348.3488
MEAN_ANOMALY   = 11.7364

EPHEMERIS_TYPE = 0
CLASSIFICATION_TYPE = U
NORAD_CAT_ID   = 11267
ELEMENT_SET_NO = 999
REV_AT_EPOCH   = 51604
BSTAR          = .75971649E-4
MEAN_MOTION_DOT = .792E-5
MEAN_MOTION_DDOT = 0

CCSDS_OMM_VERS = 2.0
CREATION_DATE  = 
ORIGINATOR     = 

OBJECT_NAME    = SL-8 R/B
OBJECT_ID      = 1979-089B
CENTER_NAME    = EARTH
REF_FRAME      = TEME
TIME_SYSTEM    = UTC
MEAN_ELEMENT_THEORY = SGP/SGP4

EPOCH          = 2025-12-14T03:42:00.696672
MEAN_MOTION    = 14.42284987
ECCENTRICITY   = .00144821
INCLINATION    = 74.0691
RA_OF_ASC_NODE = 249.3614
ARG_OF_PERICENTER = 83.1191
MEAN_ANOMALY   = 277.1613

EPHEMERIS_TYPE = 0
CLASSIFICATION_TYPE = U
NORAD_CAT_ID   = 11574
ELEMENT_SET_NO = 999
REV_AT_EPOCH   = 42377
BSTAR          = .12433853E-3
MEAN_MOTION_DOT = .384E-5
MEAN_MOTION_DDOT = 0

CCSDS_OMM_VERS = 2.0
CREATION_DATE  = 
ORIGINATOR     = 

OBJECT_NAME    = SL-14 R/B
OBJECT_ID      = 1980-005B
CENTER_NAME    = EARTH
REF_FRAME      = TEME
TIME_SYSTEM    = UTC
MEAN_ELEMENT_THEORY = SGP/SGP4

EPOCH          = 2025-12-14T08:31:06.395232
MEAN_MOTION    = 14.90794011
ECCENTRICITY   = .00173652
INCLINATION    = 82.5148
RA_OF_ASC_NODE = 28.1675
ARG_OF_PERICENTER = 88.5829
MEAN_ANOMALY   = 271.7379

EPHEMERIS_TYPE = 0
CLASSIFICATION_TYPE = U
NORAD_CAT_ID   = 11672
ELEMENT_SET_NO = 999
REV_AT_EPOCH   = 46377
BSTAR          = .74243718E-4
MEAN_MOTION_DOT = .757E-5
MEAN_MOTION_DDOT = 0

CCSDS_OMM_VERS = 2.0
CREATION_DATE  = 
ORIGINATOR     = 

OBJECT_NAME    = SL-8 R/B
OBJECT_ID      = 1981-003B
CENTER_NAME    = EARTH
REF_FRAME      = TEME
TIME_SYSTEM    = UTC
MEAN_ELEMENT_THEORY = SGP/SGP4

EPOCH          = 2025-12-14T07:56:56.460192
MEAN_MOTION    = 15.07096474
ECCENTRICITY   = .02793369
INCLINATION    = 82.9304
RA_OF_ASC_NODE = 8.7387
ARG_OF_PERICENTER = 114.7395
MEAN_ANOMALY   = 248.3182

EPHEMERIS_TYPE = 0
CLASSIFICATION_TYPE = U
NORAD_CAT_ID   = 12139
ELEMENT_SET_NO = 999
REV_AT_EPOCH   = 30180
BSTAR          = .4292608E-3
MEAN_MOTION_DOT = .16216E-3
MEAN_MOTION_DDOT = 0

CCSDS_OMM_VERS = 2.0
CREATION_DATE  = 
ORIGINATOR     = 

OBJECT_NAME    = SL-3 R/B
OBJECT_ID      = 1981-046B
CENTER_NAME    = EARTH
REF_FRAME      = TEME
TIME_SYSTEM    = UTC
MEAN_ELEMENT_THEORY = SGP/SGP4

EPOCH          = 2025-12-14T06:06:02.185344
MEAN_MOTION    = 15.39647392
ECCENTRICITY   = .00187351
INCLINATION    = 81.2334
RA_OF_ASC_NODE = 32.1266
ARG_OF_PERICENTER = 318.9745
MEAN_ANOMALY   = 41.0086

EPHEMERIS_TYPE = 0
CLASSIFICATION_TYPE = U
NORAD_CAT_ID   = 12465
ELEMENT_SET_NO = 999
REV_AT_EPOCH   = 42527
BSTAR          = .29547443E-3
MEAN_MOTION_DOT = .11755E-3
MEAN_MOTION_DDOT = 0

CCSDS_OMM_VERS = 2.0
CREATION_DATE  = 
ORIGINATOR     = 

OBJECT_NAME    = SL-3 R/B
OBJECT_ID      = 1981-103B
CENTER_NAME    = EARTH
REF_FRAME      = TEME
TIME_SYSTEM    = UTC
MEAN_ELEMENT_THEORY = SGP/SGP4

EPOCH          = 2025-12-14T07:19:57.431712
MEAN_MOTION    = 15.20258764
ECCENTRICITY   = .00118347
INCLINATION    = 81.1591
RA_OF_ASC_NODE = 313.5202
ARG_OF_PERICENTER = 207.5290
MEAN_ANOMALY   = 152.5316

EPHEMERIS_TYPE = 0
CLASSIFICATION_TYPE = U
NORAD_CAT_ID   = 12904
ELEMENT_SET_NO = 999
REV_AT_EPOCH   = 96025
BSTAR          = .32324453E-3
MEAN_MOTION_DOT = .7051E-4
MEAN_MOTION_DDOT = 0

CCSDS_OMM_VERS = 2.0
CREATION_DATE  = 
ORIGINATOR     = 

OBJECT_NAME    = SL-3 R/B
OBJECT_ID      = 1982-013B
CENTER_NAME    = EARTH
REF_FRAME      = TEME
TIME_SYSTEM    = UTC
MEAN_ELEMENT_THEORY = SGP/SGP4

EPOCH          = 2025-12-14T06:54:42.153696
MEAN_MOTION    = 15.21105396
ECCENTRICITY   = .00240561
INCLINATION    = 81.1751
RA_OF_ASC_NODE = 260.7972
ARG_OF_PERICENTER = 105.8526
MEAN_ANOMALY   = 254.5360

EPHEMERIS_TYPE = 0
CLASSIFICATION_TYPE = U
NORAD_CAT_ID   = 13068
ELEMENT_SET_NO = 999
REV_AT_EPOCH   = 39136
BSTAR          = .23593704E-3
MEAN_MOTION_DOT = .5314E-4
MEAN_MOTION_DDOT = 0

CCSDS_OMM_VERS = 2.0
CREATION_DATE  = 
ORIGINATOR     = 

OBJECT_NAME    = SL-3 R/B
OBJECT_ID      = 1982-039B
CENTER_NAME    = EARTH
REF_FRAME      = TEME
TIME_SYSTEM    = UTC
MEAN_ELEMENT_THEORY = SGP/SGP4

EPOCH          = 2025-12-14T07:06:53.578080
MEAN_MOTION    = 15.09538724
ECCENTRICITY   = .00296001
INCLINATION    = 81.1715
RA_OF_ASC_NODE = 314.3064
ARG_OF_PERICENTER = 247.0447
MEAN_ANOMALY   = 112.7654

EPHEMERIS_TYPE = 0
CLASSIFICATION_TYPE = U
NORAD_CAT_ID   = 13154
ELEMENT_SET_NO = 999
REV_AT_EPOCH   = 36875
BSTAR          = .22708264E-3
MEAN_MOTION_DOT = .3702E-4
MEAN_MOTION_DDOT = 0

